KSLV-II R/B             
1 66663U 25274P   25340.81046813  .00006269  00000+0  53389-3 0  9995
2 66663  97.7412 268.2109 0048411 339.2416  20.6839 14.97226496  1529
SOYUZ-MS 28             
1 66664U 25275A   25342.54239145  .00012445  00000+0  23028-3 0  9991
2 66664  51.6307 163.2617 0003394 220.7658 139.3077 15.49420853  1795
KOMPSAT-7               
1 66820U 25279A   25342.60282899  .00004517  00000+0  38347-3 0  9991
2 66820  97.6400 288.5530 0009431 235.5976 124.4356 14.98369604  1034
ZQ-3 R/B                
1 66877U 25282A   25342.62047862  .01149741  73104-5  24383-3 0  9994
2 66877  56.9533  73.3202 0824232 212.8744 141.8352 14.48659951   795
1998-067XS              
1 66906U 98067XS  25342.79745316  .00031833  00000+0  55816-3 0  9990
2 66906  51.6298 161.9654 0004022 184.9972 175.0977 15.50265121  1005
1998-067XT              
1 66907U 98067XT  25342.79645479  .00074227  00000+0  12614-2 0  9992
2 66907  51.6302 161.9586 0004972 204.3216 155.7539 15.50762002  1007
1998-067XU              
1 66908U 98067XU  25342.79627106  .00071266  00000+0  12102-2 0  9992
2 66908  51.6297 161.9574 0005158 203.0343 157.0415 15.50799834  1003
SILVERSAT               
1 66909U 98067XV  25342.73171404  .00079284  00000+0  13404-2 0  9996
2 66909  51.6297 162.2763 0005012 204.4469 155.6283 15.50878297   996
1998-067XW              
1 66910U 98067XW  25342.79508362  .00072421  00000+0  12166-2 0  9991
2 66910  51.6296 161.9498 0005915 189.2693 170.8188 15.51091956  1005
1998-067XX              
1 66911U 98067XX  25342.79484949  .00085043  00000+0  14185-2 0  9993
2 66911  51.6294 161.9483 0005755 189.9158 170.1718 15.51222448   994
1998-067XY              
1 66912U 98067XY  25342.79680775  .00060617  00000+0  10397-2 0  9990
2 66912  51.6301 161.9610 0005041 202.8515 157.2251 15.50590013   999
2025-284A               
1 66913U 25284A   25342.84151887  .00013828  00000+0  66264-3 0  9992
2 66913  80.4052 134.7059 0008026 259.4050 100.6273 15.18803631   539
